CCSDS_OMM_VERS,COMMENT,CREATION_DATE,ORIGINATOR,OBJECT_NAME,OBJECT_ID,CENTER_NAME,REF_FRAME,TIME_SYSTEM,MEAN_ELEMENT_THEORY,EPOCH,MEAN_MOTION,ECCENTRICITY,INCLINATION,RA_OF_ASC_NODE,ARG_OF_PERICENTER,MEAN_ANOMALY,EPHEMERIS_TYPE,CLASSIFICATION_TYPE,NORAD_CAT_ID,ELEMENT_SET_NO,REV_AT_EPOCH,BSTAR,MEAN_MOTION_DOT,MEAN_MOTION_DDOT,SEMIMAJOR_AXIS,PERIOD,APOAPSIS,PERIAPSIS,OBJECT_TYPE,RCS_SIZE,COUNTRY_CODE,LAUNCH_DATE,SITE,DECAY_DATE,FILE,GP_ID,TLE_LINE0,TLE_LINE1,TLE_LINE2
2,GENERATED VIA SPACE-TRACK.ORG API,2007-08-13T15:11:20,18 SPCS,BREEZE-M R/B,2000-029B,EARTH,TEME,UTC,SGP4,2007-08-11T02:32:47.646527,1.00405152,0.0268619,4.7987,70.8663,152.5498,209.0221,0,U,26373,999,2634,0.0001,-1.92e-06,0,42127.412,1434.189,36880.9,34617.655,ROCKET BODY,SMALL,CIS,2000-06-06,TTMTR,,437665,62761703,0 BREEZE-M R/B,1 26373U 00029B   07223.10610702 -.00000192 +00000-0 +10000-3 0  9990,2 26373 004.7987 070.8663 0268619 152.5498 209.0221 01.00405152026343
2,GENERATED VIA SPACE-TRACK.ORG API,2007-08-13T08:30:19,18 SPCS,BREEZE-M R/B,2000-029B,EARTH,TEME,UTC,SGP4,2007-08-12T02:27:02.856095,1.00405149,0.0268672,4.8011,70.8564,152.5694,209.035,0,U,26373,999,2635,0.0001,-1.97e-06,0,42127.413,1434.189,36881.124,34617.432,ROCKET BODY,SMALL,CIS,2000-06-06,TTMTR,,437536,62754571,0 BREEZE-M R/B,1 26373U 00029B   07224.10211639 -.00000197  00000-0  10000-3 0  9992,2 26373 004.8011 070.8564 0268672 152.5694 209.0350 01.00405149 26359
2,GENERATED VIA SPACE-TRACK.ORG API,2007-08-15T13:11:23,18 SPCS,BREEZE-M R/B,2000-029B,EARTH,TEME,UTC,SGP4,2007-08-13T02:21:17.324352,1.00405125,0.026867,4.8036,70.8459,152.6076,209.0265,0,U,26373,999,2636,0.0001,-2e-06,0,42127.42,1434.189,36881.122,34617.447,ROCKET BODY,SMALL,CIS,2000-06-06,TTMTR,,438366,62787879,0 BREEZE-M R/B,1 26373U 00029B   07225.09811718 -.00000200 +00000-0 +10000-3 0  9990,2 26373 004.8036 070.8459 0268670 152.6076 209.0265 01.00405125026362
2,GENERATED VIA SPACE-TRACK.ORG API,2007-08-16T13:11:17,18 SPCS,BREEZE-M R/B,2000-029B,EARTH,TEME,UTC,SGP4,2007-08-14T02:15:29.665440,1.00405098,0.0268699,4.8061,70.8357,152.63,209.0244,0,U,26373,999,2637,0.0001,-2.02e-06,0,42127.427,1434.19,36881.252,34617.333,ROCKET BODY,SMALL,CIS,2000-06-06,TTMTR,,438828,62800975,0 BREEZE-M R/B,1 26373U 00029B   07226.09409335 -.00000202 +00000-0 +10000-3 0  9991,2 26373 004.8061 070.8357 0268699 152.6300 209.0244 01.00405098026375
2,GENERATED VIA SPACE-TRACK.ORG API,2007-08-16T05:25:44,18 SPCS,BREEZE-M R/B,2000-029B,EARTH,TEME,UTC,SGP4,2007-08-15T02:09:40.076351,1.00405062,0.0268699,4.8085,70.8255,152.6641,209.003,0,U,26373,999,2638,0.0001,-2.02e-06,0,42127.437,1434.19,36881.262,34617.342,ROCKET BODY,SMALL,CIS,2000-06-06,TTMTR,,438643,62793849,0 BREEZE-M R/B,1 26373U 00029B   07227.09004718 -.00000202  00000-0  10000-3 0  9998,2 26373 004.8085 070.8255 0268699 152.6641 209.0030 01.00405062 26381
2,GENERATED VIA SPACE-TRACK.ORG API,2007-08-18T10:11:16,18 SPCS,BREEZE-M R/B,2000-029B,EARTH,TEME,UTC,SGP4,2007-08-16T02:03:47.900447,1.00405018,0.0268759,4.811,70.8152,152.6874,208.9809,0,U,26373,999,2639,0.0001,-2.02e-06,0,42127.45,1434.191,36881.528,34617.102,ROCKET BODY,SMALL,CIS,2000-06-06,TTMTR,,439546,62828513,0 BREEZE-M R/B,1 26373U 00029B   07228.08597107 -.00000202 +00000-0 +10000-3 0  9997,2 26373 004.8110 070.8152 0268759 152.6874 208.9809 01.00405018026395
2,GENERATED VIA SPACE-TRACK.ORG API,2007-08-16T09:20:09,18 SPCS,BREEZE-M R/B,2000-029B,EARTH,TEME,UTC,SGP4,2007-08-16T02:03:49.599935,1.00402229,0.0269281,4.8117,70.8092,152.6894,208.9826,0,U,26373,999,2639,0.0001,0.0,0,42128.23,1434.231,36884.528,34615.662,ROCKET BODY,SMALL,CIS,2000-06-06,TTMTR,,438762,62795604,0 BREEZE-M R/B,1 26373U 00029B   07228.08599074  .00000000  00000-0  10000-3 0  9997,2 26373 004.8117 070.8092 0269281 152.6894 208.9826 01.00402229 26398
2,GENERATED VIA SPACE-TRACK.ORG API,2007-08-18T16:26:31,18 SPCS,BREEZE-M R/B,2000-029B,EARTH,TEME,UTC,SGP4,2007-08-18T01:51:58.617792,1.00404921,0.0268944,4.8159,70.794,152.7375,208.9139,0,U,26373,999,2641,0.0001,-2.01e-06,0,42127.477,1434.192,36882.335,34616.349,ROCKET BODY,SMALL,CIS,2000-06-06,TTMTR,,439645,62830789,0 BREEZE-M R/B,1 26373U 00029B   07230.07776178 -.00000201  00000-0  10000-3 0  9995,2 26373 004.8159 070.7940 0268944 152.7375 208.9139 01.00404921 26416
2,GENERATED VIA SPACE-TRACK.ORG API,2007-08-20T10:11:32,18 SPCS,BREEZE-M R/B,2000-029B,EARTH,TEME,UTC,SGP4,2007-08-18T01:51:58.757760,1.00404917,0.0269027,4.8158,70.7936,152.7284,208.9228,0,U,26373,999,2641,0.0001,-2.01e-06,0,42127.478,1434.192,36882.686,34616.0,ROCKET BODY,SMALL,CIS,2000-06-06,TTMTR,,440420,62855471,0 BREEZE-M R/B,1 26373U 00029B   07230.07776340 -.00000201 +00000-0 +10000-3 0  9996,2 26373 004.8158 070.7936 0269027 152.7284 208.9228 01.00404917026416
2,GENERATED VIA SPACE-TRACK.ORG API,2007-08-20T16:21:41,18 SPCS,BREEZE-M R/B,2000-029B,EARTH,TEME,UTC,SGP4,2007-08-19T01:46:03.144864,1.00404872,0.0269638,4.8182,70.7803,152.7718,208.8657,0,U,26373,999,2642,0.0001,-2e-06,0,42127.49,1434.193,36885.273,34613.438,ROCKET BODY,SMALL,CIS,2000-06-06,TTMTR,,440465,62857649,0 BREEZE-M R/B,1 26373U 00029B   07231.07364751 -.00000200  00000-0  10000-3 0  9995,2 26373 004.8182 070.7803 0269638 152.7718 208.8657 01.00404872 26422
2,GENERATED VIA SPACE-TRACK.ORG API,2007-08-22T09:11:26,18 SPCS,BREEZE-M R/B,2000-029B,EARTH,TEME,UTC,SGP4,2007-08-20T01:40:08.166143,1.00404802,0.0269644,4.8206,70.7699,152.8,208.8276,0,U,26373,999,2643,0.0001,-2e-06,0,42127.51,1434.194,36885.318,34613.432,ROCKET BODY,SMALL,CIS,2000-06-06,TTMTR,,441107,62880706,0 BREEZE-M R/B,1 26373U 00029B   07232.06953896 -.00000200 +00000-0 +10000-3 0  9999,2 26373 004.8206 070.7699 0269644 152.8000 208.8276 01.00404802026435
2,GENERATED VIA SPACE-TRACK.ORG API,2007-08-23T09:11:27,18 SPCS,BREEZE-M R/B,2000-029B,EARTH,TEME,UTC,SGP4,2007-08-21T01:34:13.289376,1.00404719,0.0269656,4.823,70.7598,152.8268,208.7907,0,U,26373,999,2644,0.0001,-2e-06,0,42127.533,1434.195,36885.393,34613.404,ROCKET BODY,SMALL,CIS,2000-06-06,TTMTR,,441456,62893681,0 BREEZE-M R/B,1 26373U 00029B   07233.06543159 -.00000200 +00000-0 +10000-3 0  9997,2 26373 004.8230 070.7598 0269656 152.8268 208.7907 01.00404719026447
2,GENERATED VIA SPACE-TRACK.ORG API,2007-08-24T00:38:51,18 SPCS,BREEZE-M R/B,2000-029B,EARTH,TEME,UTC,SGP4,2007-08-23T01:22:29.518175,1.00404523,0.0269418,4.828,70.7404,152.8669,208.756,0,U,26373,999,2646,0.0001,-2.01e-06,0,42127.588,1434.198,36884.446,34614.46,ROCKET BODY,SMALL,CIS,2000-06-06,TTMTR,,441630,62898325,0 BREEZE-M R/B,1 26373U 00029B   07235.05728609 -.00000201  00000-0  10000-3 0  9994,2 26373 004.8280 070.7404 0269418 152.8669 208.7560 01.00404523 26469
2,GENERATED VIA SPACE-TRACK.ORG API,2007-08-26T09:11:16,18 SPCS,BREEZE-M R/B,2000-029B,EARTH,TEME,UTC,SGP4,2007-08-24T01:16:40.329119,1.00404414,0.0269386,4.8304,70.7298,152.8943,208.7424,0,U,26373,999,2647,0.0001,-2.03e-06,0,42127.619,1434.199,36884.343,34614.625,ROCKET BODY,SMALL,CIS,2000-06-06,TTMTR,,442469,62934219,0 BREEZE-M R/B,1 26373U 00029B   07236.05324455 -.00000203 +00000-0 +10000-3 0  9998,2 26373 004.8304 070.7298 0269386 152.8943 208.7424 01.00404414026475
2,GENERATED VIA SPACE-TRACK.ORG API,2007-08-25T14:11:16,18 SPCS,BREEZE-M R/B,2000-029B,EARTH,TEME,UTC,SGP4,2007-08-24T01:16:40.479456,1.00404421,0.0269587,4.8304,70.7288,152.9117,208.7251,0,U,26373,999,2647,0.0001,-2.03e-06,0,42127.617,1434.199,36885.187,34613.776,ROCKET BODY,SMALL,CIS,2000-06-06,TTMTR,,442191,62921664,0 BREEZE-M R/B,1 26373U 00029B   07236.05324629 -.00000203 +00000-0 +10000-3 0  9991,2 26373 004.8304 070.7288 0269587 152.9117 208.7251 01.00404421026477
2,GENERATED VIA SPACE-TRACK.ORG API,2007-08-27T08:11:25,18 SPCS,BREEZE-M R/B,2000-029B,EARTH,TEME,UTC,SGP4,2007-08-25T01:10:53.621472,1.00404282,0.0269382,4.8328,70.7194,152.9264,208.7327,0,U,26373,999,2648,0.0001,-2.06e-06,0,42127.656,1434.201,36884.364,34614.677,ROCKET BODY,SMALL,CIS,2000-06-06,TTMTR,,442773,62946256,0 BREEZE-M R/B,1 26373U 00029B   07237.04923173 -.00000206 +00000-0 +10000-3 0  9993,2 26373 004.8328 070.7194 0269382 152.9264 208.7327 01.00404282026485
2,GENERATED VIA SPACE-TRACK.ORG API,2007-08-27T08:29:07,18 SPCS,BREEZE-M R/B,2000-029B,EARTH,TEME,UTC,SGP4,2007-08-26T01:05:08.341151,1.00404159,0.0269561,4.8352,70.7079,152.9712,208.7162,0,U,26373,999,2649,0.0001,-2.09e-06,0,42127.69,1434.203,36885.153,34613.957,ROCKET BODY,SMALL,CIS,2000-06-06,TTMTR,,442789,62948536,0 BREEZE-M R/B,1 26373U 00029B   07238.04523543 -.00000209  00000-0  10000-3 0  9994,2 26373 004.8352 070.7079 0269561 152.9712 208.7162 01.00404159 26492
2,GENERATED VIA SPACE-TRACK.ORG API,2007-08-29T12:11:52,18 SPCS,BREEZE-M R/B,2000-029B,EARTH,TEME,UTC,SGP4,2007-08-28T00:53:36.786911,1.00403862,0.0269344,4.8401,70.689,153.0024,208.7357,0,U,26373,999,2651,0.0001,-2.18e-06,0,42127.773,1434.207,36884.324,34614.952,ROCKET BODY,SMALL,CIS,2000-06-06,TTMTR,,443677,62977802,0 BREEZE-M R/B,1 26373U 00029B   07240.03723133 -.00000218 +00000-0 +10000-3 0  9993,2 26373 004.8401 070.6890 0269344 153.0024 208.7357 01.00403862026513
2,GENERATED VIA SPACE-TRACK.ORG API,2007-08-30T00:29:38,18 SPCS,BREEZE-M R/B,2000-029B,EARTH,TEME,UTC,SGP4,2007-08-29T00:47:48.194879,1.00403677,0.0269445,4.8424,70.6787,153.0421,208.7064,0,U,26373,999,2652,0.0001,-2.23e-06,0,42127.825,1434.21,36884.803,34614.577,ROCKET BODY,SMALL,CIS,2000-06-06,TTMTR,,443817,62983599,0 BREEZE-M R/B,1 26373U 00029B   07241.03319670 -.00000223  00000-0  10000-3 0  9997,2 26373 004.8424 070.6787 0269445 153.0421 208.7064 01.00403677 26526
2,GENERATED VIA SPACE-TRACK.ORG API,2007-09-01T16:21:39,18 SPCS,BREEZE-M R/B,2000-029B,EARTH,TEME,UTC,SGP4,2007-09-01T00:30:05.746175,1.0040308,0.0268996,4.8497,70.6485,153.1006,208.6106,0,U,26373,999,2655,0.0001,-2.46e-06,0,42127.992,1434.218,36883.083,34616.631,ROCKET BODY,SMALL,CIS,2000-06-06,TTMTR,,444910,63019814,0 BREEZE-M R/B,1 26373U 00029B   07244.02089984 -.00000246  00000-0  10000-3 0  9996,2 26373 004.8497 070.6485 0268996 153.1006 208.6106 01.00403080 26558
